IRIDIUM 159             
1 43578U 18061K   24042.58835992  .00000037  00000+0  62688-5 0  9998
2 43578  86.3926  54.6871 0002274  88.0494 272.0963 14.34216701290607
IRIDIUM 180             
1 43922U 19002A   24042.93669988  .00000058  00000+0  13519-4 0  9997
2 43922  86.4013 351.4369 0002225  85.7439 274.4011 14.34217052266262
IRIDIUM 176             
1 43923U 19002B   24042.90180594  .00002187  00000+0  34283-3 0  9991
2 43923  86.6146 351.4801 0002460  91.1858 268.9641 14.72256058273266
IRIDIUM 168             
1 43924U 19002C   24042.86058862  .00000194  00000+0  62225-4 0  9993
2 43924  86.4017 351.5216 0002219  82.8878 277.2570 14.34217905266233
IRIDIUM 173             
1 43925U 19002D   24042.91766842  .00000381  00000+0  12903-3 0  9999
2 43925  86.4011 351.4222 0002221  78.9192 281.2254 14.34216284266224
IRIDIUM 172             
1 43927U 19002F   24042.91132024  .00000574  00000+0  19798-3 0  9993
2 43927  86.4012 351.4298 0002240  85.8824 274.2628 14.34217603266234
